DMSP 5D-3 F16 (USA 172) 
1 28054U 03048A   26178.30224537  .00000023  00000+0  35468-4 0  9998
2 28054  98.9887 202.1974 0008105 114.9585  59.7637 14.14483754170918
METEOSAT-9 (MSG-2)      
1 28912U 05049B   26177.81720226  .00000126  00000+0  00000+0 0  9998
2 28912   9.3827  54.0739 0001988 356.9985 203.7944  1.00277622  7094
DMSP 5D-3 F17 (USA 191) 
1 29522U 06050A   26178.28140763  .00000054  00000+0  50025-4 0  9990
2 29522  98.7378 184.6449 0010763  33.0008 327.1836 14.14994167 13854
FENGYUN 3A              
1 32958U 08026A   26178.26743980  .00000065  00000+0  51133-4 0  9993
2 32958  98.6885 118.9122 0009868  97.7117 262.5180 14.19573214936830
GOES 14                 
1 35491U 09033A   26178.01934707 -.00000314  00000+0  00000+0 0  9999
2 35491   1.7153  82.9344 0002251  19.2331 316.0256  1.00108179  6680
DMSP 5D-3 F18 (USA 210) 
1 35951U 09057A   26178.25344470  .00000234  00000+0  14446-3 0  9997
2 35951  98.9041 159.0008 0010210 217.9804 142.0650 14.14902289861018
EWS-G2 (GOES 15)        
1 36411U 10008A   26178.10593733  .00000031  00000+0  00000+0 0  9991
2 36411   1.3045  82.7132 0005345  43.3637 250.8305  1.00268050 59735
COMS 1                  
1 36744U 10032A   26177.95757811  .00000041  00000+0  00000+0 0  9999
2 36744   4.8297  75.2434 0011917  12.9181 206.1281  0.99166709 51184
FENGYUN 3B              
1 37214U 10059A   26178.28922983  .00000222  00000+0  13803-3 0  9992
2 37214  98.9621 224.3466 0022497 155.5179 337.5335 14.14843579808852
SUOMI NPP               
1 37849U 11061A   26178.27907202  .00000050  00000+0  44778-4 0  9991
2 37849  98.7955 119.0862 0000954 336.8129  23.3003 14.19519354759872
METEOSAT-10 (MSG-3)     
1 38552U 12035B   26178.02213338  .00000001  00000+0  00000+0 0  9999
2 38552   4.6945  60.9773 0001756   9.1573 213.1506  1.00268678 50954
METOP-B                 
1 38771U 12049A   26178.25553960  .00000105  00000+0  67721-4 0  9993
2 38771  98.6500 229.5537 0001606 349.4789  10.6355 14.21441946714699
INSAT-3D                
1 39216U 13038B   26178.02892113 -.00000329  00000+0  00000+0 0  9999
2 39216   1.9512  82.4280 0001147   2.7760 329.8733  1.00271756 47173
FENGYUN 3C              
1 39260U 13052A   26178.22078869  .00000064  00000+0  53535-4 0  9991
2 39260  98.4983 151.6351 0014651 359.4901   0.6256 14.15757223659986
METEOR-M 2              
1 40069U 14037A   26178.28175806  .00000388  00000+0  19668-3 0  9996
2 40069  98.5111 153.6627 0006260  18.9192 341.2217 14.21464891620750
HIMAWARI-8              
1 40267U 14060A   26178.26355895 -.00000264  00000+0  00000+0 0  9998
2 40267   0.0113 317.7700 0001122 134.2745  58.8661  1.00274117 42860
FENGYUN 2G              
1 40367U 14090A   26177.68534693 -.00000296  00000+0  00000+0 0  9997
2 40367   5.6634  72.7057 0003579 150.4754  37.9966  1.00269056 42098
METEOSAT-11 (MSG-4)     
1 40732U 15034A   26178.16653583  .00000070  00000+0  00000+0 0  9995
2 40732   3.2255  71.0480 0002243 347.4242 286.1812  1.00266192  7318
ELEKTRO-L 2             
1 41105U 15074A   26176.94987031 -.00000113  00000+0  00000+0 0  9995
2 41105   6.7170  70.4166 0000727 286.6211 244.4527  1.00271163 38594
SENTINEL-3A             
1 41335U 16011A   26178.24514076  .00000100  00000+0  59269-4 0  9993
2 41335  98.6246 245.4842 0001434  96.8120 263.3224 14.26735258539495
INSAT-3DR               
1 41752U 16054A   26178.10801734 -.00000065  00000+0  00000+0 0  9993
2 41752   0.1309  86.1866 0010052 186.7850 115.1093  1.00272424 35912
HIMAWARI-9              
1 41836U 16064A   26178.26355979 -.00000263  00000+0  00000+0 0  9999
2 41836   0.0169  47.0434 0001177  66.9775  36.9953  1.00270921 35317
GOES 16                 
1 41866U 16071A   26178.21516858 -.00000080  00000+0  00000+0 0  9997
2 41866   0.3660  85.5235 0000590   9.4657 153.1049  1.00272083 35201
FENGYUN 4A              
1 41882U 16077A   26177.54757616 -.00000348  00000+0  00000+0 0  9992
2 41882   2.3469  80.1884 0008229 152.1316   3.0696  1.00264621 35024
CYGFM05                 
1 41884U 16078A   26178.24667672  .00022914  00000+0  30553-3 0  9997
2 41884  34.9548 193.9564 0008132 242.0936 117.8965 15.57082196530321
CYGFM04                 
1 41885U 16078B   26178.24959998  .00031373  00000+0  34549-3 0  9991
2 41885  34.9306 161.1148 0007272 278.5878  81.4023 15.62048843530577
CYGFM02                 
1 41886U 16078C   26178.23075145  .00037538  00000+0  36546-3 0  9992
2 41886  34.9386 155.4782 0008208 280.5423  79.4379 15.65132330530743
CYGFM01                 
1 41887U 16078D   26177.39784161  .00023434  00000+0  30491-3 0  9997
2 41887  34.9382 200.5628 0007851 229.8106 130.1932 15.57732603530142
CYGFM08                 
1 41888U 16078E   26178.23702464  .00028960  00000+0  33841-3 0  9999
2 41888  34.9410 174.3063 0009150 264.9184  95.0497 15.60510591530549
CYGFM07                 
1 41890U 16078G   26178.25951701  .00028792  00000+0  33535-3 0  9997
2 41890  34.9427 162.4894 0007627 278.4953  81.4908 15.60613623530570
CYGFM03                 
1 41891U 16078H   26178.23057067  .00028635  00000+0  33367-3 0  9997
2 41891  34.9382 164.6159 0007340 266.7675  93.2210 15.60604008530543
